     2.10           G: GLONASS NAV DATA                     RINEX VERSION / TYPE
teqc  2015Jun23                         20211210 01:25:49UTCPGM / RUN BY / DATE
Linux 2.4.21-27.ELsmp|Opteron|gcc -static|Linux x86_64|=+   COMMENT
  2021    11    16   -4.656612873077D-10                    CORR TO SYSTEM TIME
                                                            END OF HEADER
 7 21 11 17 12 45  0.0-3.989227116108D-05-0.000000000000D+00 4.500000000000D+04
    1.208245068359D+04 1.327610015869D-01-9.313225746155D-10 0.000000000000D+00
    2.243397167969D+04-8.937740325928D-02-1.862645149231D-09 5.000000000000D+00
   -8.270117187500D+01-3.574157714844D+00 0.000000000000D+00 0.000000000000D+00
19 21 11 17 12 45  0.0-1.673279330134D-04-9.094947017729D-13 4.500000000000D+04
   -1.632480078125D+04 1.325661659241D+00-4.656612873077D-09 0.000000000000D+00
    1.226089599609D+04-1.637950897217D+00 1.862645149231D-09 3.000000000000D+00
    1.530400781250D+04 2.726030349731D+00-0.000000000000D+00 0.000000000000D+00
20 21 11 17 12 45  0.0-5.949661135674D-05-0.000000000000D+00 4.500000000000D+04
   -1.244386865234D+04-1.034259796143D-01-3.725290298462D-09 0.000000000000D+00
    2.186660107422D+04 6.076116561890D-01 0.000000000000D+00 2.000000000000D+00
   -4.083963867188D+03 3.560627937317D+00 1.862645149231D-09 0.000000000000D+00
21 21 11 17 12 45  0.0-2.552699297667D-04-2.728484105319D-12 4.500000000000D+04
    7.833193359375D+02-1.357627868652D+00-0.000000000000D+00 0.000000000000D+00
    1.574050781250D+04 2.396037101746D+00-9.313225746155D-10 4.000000000000D+00
   -2.006376562500D+04 1.823093414307D+00 1.862645149231D-09 0.000000000000D+00
 8 21 11 17 12 45  0.0-6.205495446920D-05 0.000000000000D+00 4.665000000000D+04
    1.546758447266D+04 1.107352256775D+00-0.000000000000D+00 0.000000000000D+00
    1.319991259766D+04 1.793483734131D+00-1.862645149231D-09 6.000000000000D+00
    1.542906347656D+04-2.655133247375D+00-1.862645149231D-09 0.000000000000D+00
 8 21 11 17 13 15  0.0-6.204191595316D-05-0.000000000000D+00 4.680000000000D+04
    1.733810009766D+04 9.268321990967D-01-9.313225746155D-10 0.000000000000D+00
    1.574738085938D+04 1.030503273010D+00-1.862645149231D-09 6.000000000000D+00
    1.011591650391D+04-3.210219383240D+00-9.313225746155D-10 0.000000000000D+00
 6 21 11 17 13 15  0.0-1.625716686249D-05-1.818989403546D-12 4.680000000000D+04
    8.101367187500D+01-1.597386360168D+00-9.313225746155D-10 0.000000000000D+00
    1.593441748047D+04-2.208027839661D+00-9.313225746155D-10-4.000000000000D+00
   -1.992628906250D+04-1.776201248169D+00 1.862645149231D-09 0.000000000000D+00
 7 21 11 17 13 15  0.0-3.989227116108D-05-0.000000000000D+00 4.680000000000D+04
    1.187261572266D+04-3.962879180908D-01-9.313225746155D-10 0.000000000000D+00
    2.160219091797D+04-8.070182800293D-01-1.862645149231D-09 5.000000000000D+00
   -6.429542480469D+03-3.431905746460D+00 0.000000000000D+00 0.000000000000D+00
 9 21 11 17 13 15  0.0 2.407096326351D-05 1.818989403546D-12 4.680000000000D+04
   -1.271913916016D+04-2.590087890625D+00-3.725290298462D-09 0.000000000000D+00
    1.106182861328D+04 3.765907287598D-01 2.793967723846D-09-2.000000000000D+00
    1.913530810547D+04-1.947604179382D+00-0.000000000000D+00 0.000000000000D+00
19 21 11 17 13 15  0.0-1.673307269812D-04-9.094947017729D-13 4.680000000000D+04
   -1.391413378906D+04 1.308298110962D+00-3.725290298462D-09 0.000000000000D+00
    8.657624511719D+03-2.344686508179D+00 2.793967723846D-09 3.000000000000D+00
    1.955640576172D+04 1.968208312988D+00-0.000000000000D+00 0.000000000000D+00
20 21 11 17 13 15  0.0-5.949847400188D-05-0.000000000000D+00 4.680000000000D+04
   -1.216835791016D+04 3.733310699463D-01-4.656612873077D-09 0.000000000000D+00
    2.227096875000D+04-1.814651489258D-01 1.862645149231D-09 2.000000000000D+00
    2.400426269531D+03 3.597354888916D+00 9.313225746155D-10 0.000000000000D+00
21 21 11 17 13 15  0.0-2.552755177021D-04-2.728484105319D-12 4.680000000000D+04
   -1.115659179688D+03-7.558250427246D-01-1.862645149231D-09 0.000000000000D+00
    1.980777001953D+04 2.073955535889D+00-0.000000000000D+00 4.000000000000D+00
   -1.604960302734D+04 2.608093261719D+00 1.862645149231D-09 0.000000000000D+00
16 21 11 17 13 15  0.0-2.515409141779D-05 0.000000000000D+00 4.845000000000D+04
   -2.420080761719D+04-7.458963394165D-01-3.725290298462D-09 0.000000000000D+00
    6.053685546875D+03 2.385873794556D-01 3.725290298462D-09-1.000000000000D+00
    5.632519042969D+03-3.436194419861D+00 9.313225746155D-10 0.000000000000D+00
 8 21 11 17 13 45  0.0-6.204191595316D-05-0.000000000000D+00 4.860000000000D+04
    1.864944335938D+04 4.899444580078D-01-9.313225746155D-10 0.000000000000D+00
    1.692068603516D+04 2.855644226074D-01-1.862645149231D-09 6.000000000000D+00
    4.021114746094D+03-3.517875671387D+00-0.000000000000D+00 0.000000000000D+00
 6 21 11 17 13 45  0.0-1.626089215279D-05-1.818989403546D-12 4.860000000000D+04
   -3.290446289062D+03-2.128734588623D+00-0.000000000000D+00 0.000000000000D+00
    1.193987646484D+04-2.184537887573D+00-0.000000000000D+00-4.000000000000D+00
   -2.231267773438D+04-8.582534790039D-01 2.793967723846D-09 0.000000000000D+00
 7 21 11 17 13 45  0.0-3.989227116108D-05-0.000000000000D+00 4.860000000000D+04
    1.057224658203D+04-1.063675880432D+00-9.313225746155D-10 0.000000000000D+00
    1.965341894531D+04-1.318030357361D+00-9.313225746155D-10 5.000000000000D+00
   -1.227720166016D+04-3.023096084595D+00 9.313225746155D-10 0.000000000000D+00
 9 21 11 17 13 45  0.0 2.407375723124D-05 1.818989403546D-12 4.860000000000D+04
   -1.684122509766D+04-1.957246780396D+00-3.725290298462D-09 0.000000000000D+00
    1.196207177734D+04 5.907192230225D-01 3.725290298462D-09-2.000000000000D+00
    1.493433886719D+04-2.689954757690D+00 0.000000000000D+00 0.000000000000D+00
16 21 11 17 13 45  0.0-2.515316009521D-05 0.000000000000D+00 4.860000000000D+04
   -2.475726806641D+04 1.249856948853D-01-1.862645149231D-09 0.000000000000D+00
    6.405019531250D+03 1.116437911987D-01 3.725290298462D-09-1.000000000000D+00
   -6.893925781250D+02-3.542891502380D+00 1.862645149231D-09 0.000000000000D+00
20 21 11 17 13 45  0.0-5.949940532446D-05-0.000000000000D+00 4.860000000000D+04
   -1.124607275391D+04 6.079330444336D-01-4.656612873077D-09 0.000000000000D+00
    2.116351904297D+04-1.053004264832D+00 2.793967723846D-09 2.000000000000D+00
    8.698876464844D+03 3.355416297913D+00 9.313225746155D-10 0.000000000000D+00
21 21 11 17 13 45  0.0-2.552801743150D-04-2.728484105319D-12 4.860000000000D+04
   -1.983296386719D+03-2.295198440552D-01-2.793967723846D-09 0.000000000000D+00
    2.304138818359D+04 1.477767944336D+00 0.000000000000D+00 4.000000000000D+00
   -1.079596484375D+04 3.191394805908D+00 1.862645149231D-09 0.000000000000D+00
22 21 11 17 13 45  0.0-1.457482576370D-04-1.818989403546D-12 5.028000000000D+04
    6.603921875000D+03-8.196420669556D-01-0.000000000000D+00 0.000000000000D+00
    1.141532910156D+04 2.880248069763D+00-1.862645149231D-09-3.000000000000D+00
   -2.182360253906D+04 1.266957283020D+00 1.862645149231D-09 0.000000000000D+00
 8 21 11 17 14 15  0.0-6.204284727573D-05-0.000000000000D+00 5.040000000000D+04
    1.897443457031D+04-1.580877304077D-01-1.862645149231D-09 0.000000000000D+00
    1.685079638672D+04-3.345565795898D-01-1.862645149231D-09 6.000000000000D+00
   -2.384795410156D+03-3.553509712219D+00 0.000000000000D+00 0.000000000000D+00
16 21 11 17 14 15  0.0-2.515316009521D-05 0.000000000000D+00 5.040000000000D+04
   -2.379404199219D+04 9.243373870850D-01-9.313225746155D-10 0.000000000000D+00
    6.318526367188D+03-2.423400878906D-01 3.725290298462D-09-1.000000000000D+00
   -6.958480957031D+03-3.377923965454D+00 1.862645149231D-09 0.000000000000D+00
 6 21 11 17 14 15  0.0-1.626461744308D-05-1.818989403546D-12 5.040000000000D+04
   -7.481145996094D+03-2.492087364197D+00-0.000000000000D+00 0.000000000000D+00
    8.221246582031D+03-1.910430908203D+00 0.000000000000D+00-4.000000000000D+00
   -2.297650634766D+04 1.253547668457D-01 2.793967723846D-09 0.000000000000D+00
 7 21 11 17 14 15  0.0-3.989320248365D-05-0.000000000000D+00 5.040000000000D+04
    8.021747558594D+03-1.766761779785D+00-9.313225746155D-10 0.000000000000D+00
    1.701486621094D+04-1.567916870117D+00-9.313225746155D-10 5.000000000000D+00
   -1.717140136719D+04-2.379433631897D+00 1.862645149231D-09 0.000000000000D+00
 9 21 11 17 14 15  0.0 2.407655119896D-05 1.818989403546D-12 5.040000000000D+04
   -1.967661279297D+04-1.177422523499D+00-2.793967723846D-09 0.000000000000D+00
    1.305376318359D+04 5.817766189575D-01 4.656612873077D-09-2.000000000000D+00
    9.576346679688D+03-3.224713325500D+00 9.313225746155D-10 0.000000000000D+00
20 21 11 17 14 15  0.0-5.950126796961D-05-0.000000000000D+00 5.040000000000D+04
   -1.013821972656D+04 5.801038742065D-01-3.725290298462D-09 0.000000000000D+00
    1.850255761719D+04-1.887315750122D+00 3.725290298462D-09 2.000000000000D+00
    1.432375878906D+04 2.853878021240D+00 0.000000000000D+00 0.000000000000D+00
21 21 11 17 14 15  0.0-2.552848309278D-04-2.728484105319D-12 5.040000000000D+04
   -2.045013671875D+03 1.260995864868D-01-3.725290298462D-09 0.000000000000D+00
    2.500375048828D+04 6.760683059692D-01 1.862645149231D-09 4.000000000000D+00
   -4.708876953125D+03 3.528178215027D+00 1.862645149231D-09 0.000000000000D+00
22 21 11 17 14 15  0.0-1.457529142499D-04-1.818989403546D-12 5.040000000000D+04
    5.601694335938D+03-3.025789260864D-01-9.313225746155D-10 0.000000000000D+00
    1.635396679688D+04 2.556454658508D+00-9.313225746155D-10-3.000000000000D+00
   -1.872770947266D+04 2.150778770447D+00 1.862645149231D-09 0.000000000000D+00
10 21 11 17 14 15  0.0-7.715076208115D-05-0.000000000000D+00 5.043000000000D+04
   -5.892784179688D+03-2.645713806152D+00-2.793967723846D-09 0.000000000000D+00
    1.320065332031D+04 1.135477066040D+00 2.793967723846D-09-7.000000000000D+00
    2.103010156250D+04-1.446764945984D+00-9.313225746155D-10 0.000000000000D+00
